[{"OBJECT_NAME":"STARLINK-3856","OBJECT_ID":"2022-049J","EPOCH":"2026-03-09T06:41:11.745024","MEAN_MOTION":15.08850733,"ECCENTRICITY":0.00015241,"INCLINATION":53.2179,"RA_OF_ASC_NODE":60.9676,"ARG_OF_PERICENTER":87.1423,"MEAN_ANOMALY":272.9744,"EPHEMERIS_TYPE":0,"CLASSIFICATION_TYPE":"U","NORAD_CAT_ID":52459,"ELEMENT_SET_NO":999,"REV_AT_EPOCH":21218,"BSTAR":0.00021236285,"MEAN_MOTION_DOT":3.094e-5,"MEAN_MOTION_DDOT":0},{"OBJECT_NAME":"STARLING 3","OBJECT_ID":"2023-100D","EPOCH":"2026-03-09T22:41:57.048288","MEAN_MOTION":15.11145977,"ECCENTRICITY":0.00066311,"INCLINATION":99.5096,"RA_OF_ASC_NODE":65.6477,"ARG_OF_PERICENTER":76.1122,"MEAN_ANOMALY":284.0839,"EPHEMERIS_TYPE":0,"CLASSIFICATION_TYPE":"U","NORAD_CAT_ID":57389,"ELEMENT_SET_NO":999,"REV_AT_EPOCH":14507,"BSTAR":0.00051487914,"MEAN_MOTION_DOT":8.551e-5,"MEAN_MOTION_DDOT":0}]
